ONEWEB-0158             
1 48054U 21025N   25165.19052898 -.00000233  00000+0 -67226-3 0  9997
2 48054  87.8974  33.3337 0001734  78.6922 281.4402 13.13469285205322
ONEWEB-0157             
1 48055U 21025P   25164.91120965  .00000039  00000+0  72349-4 0  9993
2 48055  87.8965  33.3998 0002244  78.0747 282.0634 13.13470743205226
ONEWEB-0162             
1 48056U 21025Q   25164.88736735 -.00000237  00000+0 -68357-3 0  9993
2 48056  87.8971  33.4032 0001816  80.6464 279.4870 13.13472038205190
ONEWEB-0155             
1 48057U 21025R   25164.89428076 -.00000242  00000+0 -69755-3 0  9990
2 48057  87.8969  33.4098 0002007  86.0915 274.0444 13.13469986205336
ONEWEB-0149             
1 48058U 21025S   25165.06864377  .00000191  00000+0  48854-3 0  9997
2 48058  87.8964  33.3699 0001788  76.8008 283.3320 13.13470080205178
ONEWEB-0148             
1 48059U 21025T   25165.18375654 -.00000093  00000+0 -29001-3 0  9992
2 48059  87.8976  33.3701 0001964  63.0785 297.0545 13.13469564205303
ONEWEB-0160             
1 48060U 21025U   25165.04832727 -.00000256  00000+0 -73653-3 0  9991
2 48060  87.8972  33.3935 0001188 105.0709 255.0552 13.13470106205239
ONEWEB-0163             
1 48061U 21025V   25164.88075999 -.00000101  00000+0 -31248-3 0  9996
2 48061  87.8972  33.4090 0002098  81.2716 278.8651 13.13469339205337
